EUTELSAT 8 WEST B       
1 40875U 15039B   25323.80260324 -.00000044  00000+0  00000+0 0  9999
2 40875   0.0673 350.1124 0004181 253.9513  95.9759  1.00272028 37556
EUTELSAT 9B             
1 41310U 16005A   25323.80598325  .00000083  00000+0  00000+0 0  9995
2 41310   0.0731  78.8860 0004302 180.3012  99.0488  1.00272318 36015
EUTELSAT 65 WEST A      
1 41382U 16014A   25323.65588602 -.00000256  00000+0  00000+0 0  9997
2 41382   0.0938  55.9442 0002327 190.9646 342.9736  1.00274113 35436
EUTELSAT 117 WEST B     
1 41589U 16038B   25323.49568457  .00000009  00000+0  00000+0 0  9995
2 41589   0.0078 166.5526 0000135 337.4284 336.2810  1.00268811 34563
EUTELSAT 172B           
1 42741U 17029B   25323.76693115  .00000016  00000+0  00000+0 0  9995
2 42741   0.0365 149.7468 0000236 307.7813  49.6236  1.00272669 31639
EUTELSAT 7C             
1 44334U 19034B   25323.80563660  .00000070  00000+0  00000+0 0  9999
2 44334   0.0736 183.3306 0002987  34.5711 138.2556  1.00271251  4730
EUTELSAT 5 WEST B       
1 44624U 19067A   25323.73183094 -.00000020  00000+0  00000+0 0  9994
2 44624   0.0723 326.5541 0003346 274.4402  76.5152  1.00275281 22331
EUTELSAT KONNECT        
1 45027U 20005B   25322.59281792  .00000068  00000+0  00000+0 0  9994
2 45027   0.0657  97.2880 0001132 172.3186   8.9038  1.00270018 22211
